IRIDIUM 159             
1 43578U 18061K   23344.79670028  .00000269  00000+0  88958-4 0  9996
2 43578  86.3967  80.9537 0001939  97.0732 263.0684 14.34217831281600
IRIDIUM 180             
1 43922U 19002A   23344.51711391  .00000251  00000+0  82427-4 0  9990
2 43922  86.3980  17.9451 0001992  93.7297 266.4127 14.34220216257211
IRIDIUM 176             
1 43923U 19002B   23344.62384865  .00000748  00000+0  11476-3 0  9991
2 43923  86.6109  17.9318 0002378  95.4901 264.6587 14.72237965263959
IRIDIUM 168             
1 43924U 19002C   23344.58054821  .00000247  00000+0  81250-4 0  9995
2 43924  86.3984  17.9700 0002075  95.2063 264.9370 14.34217640257169
IRIDIUM 173             
1 43925U 19002D   23343.52132654  .00000254  00000+0  83803-4 0  9994
2 43925  86.3981  18.3394 0002149  97.6176 262.5264 14.34219936256990
IRIDIUM 169             
1 43926U 19002E   23344.72492350  .00000285  00000+0  86563-4 0  9990
2 43926  86.4237  49.4418 0004704 117.4708 242.6969 14.38595022258034
IRIDIUM 172             
1 43927U 19002F   23344.63128758  .00000250  00000+0  82116-4 0  9991
2 43927  86.3978  17.8804 0002101  93.5201 266.6235 14.34215932257165
IRIDIUM 175             
1 43928U 19002G   23344.54992069  .00000840  00000+0  12938-3 0  9995
2 43928  86.1512   1.8322 0002449  93.3878 266.7619 14.72228106263937
